CCSDS_OMM_VERS = 2.0
CREATION_DATE  = 
ORIGINATOR     = 

OBJECT_NAME    = STARLINK-35389
OBJECT_ID      = 2025-259N
CENTER_NAME    = EARTH
REF_FRAME      = TEME
TIME_SYSTEM    = UTC
MEAN_ELEMENT_THEORY = SGP/SGP4

EPOCH          = 2025-12-10T22:00:03.000096
MEAN_MOTION    = 15.40639512
ECCENTRICITY   = .00014876
INCLINATION    = 43.0002
RA_OF_ASC_NODE = 58.2500
ARG_OF_PERICENTER = 264.7831
MEAN_ANOMALY   = 144.8029

EPHEMERIS_TYPE = 0
CLASSIFICATION_TYPE = U
NORAD_CAT_ID   = 66434
ELEMENT_SET_NO = 999
REV_AT_EPOCH   = 598
BSTAR          = .47151562E-3
MEAN_MOTION_DOT = .19403E-3
MEAN_MOTION_DDOT = 0

CCSDS_OMM_VERS = 2.0
CREATION_DATE  = 
ORIGINATOR     = 

OBJECT_NAME    = STARLINK-35502
OBJECT_ID      = 2025-259P
CENTER_NAME    = EARTH
REF_FRAME      = TEME
TIME_SYSTEM    = UTC
MEAN_ELEMENT_THEORY = SGP/SGP4

EPOCH          = 2025-12-10T22:00:03.000096
MEAN_MOTION    = 15.40754975
ECCENTRICITY   = .00011287
INCLINATION    = 43.0002
RA_OF_ASC_NODE = 58.2211
ARG_OF_PERICENTER = 266.3675
MEAN_ANOMALY   = 155.5747

EPHEMERIS_TYPE = 0
CLASSIFICATION_TYPE = U
NORAD_CAT_ID   = 66435
ELEMENT_SET_NO = 999
REV_AT_EPOCH   = 598
BSTAR          = -.34068334E-2
MEAN_MOTION_DOT = -.140283E-2
MEAN_MOTION_DDOT = 0

CCSDS_OMM_VERS = 2.0
CREATION_DATE  = 
ORIGINATOR     = 

OBJECT_NAME    = STARLINK-35501
OBJECT_ID      = 2025-259Q
CENTER_NAME    = EARTH
REF_FRAME      = TEME
TIME_SYSTEM    = UTC
MEAN_ELEMENT_THEORY = SGP/SGP4

EPOCH          = 2025-12-10T22:00:03.000096
MEAN_MOTION    = 15.40746917
ECCENTRICITY   = .00013876
INCLINATION    = 43.0003
RA_OF_ASC_NODE = 58.1593
ARG_OF_PERICENTER = 254.2508
MEAN_ANOMALY   = 192.5828

EPHEMERIS_TYPE = 0
CLASSIFICATION_TYPE = U
NORAD_CAT_ID   = 66436
ELEMENT_SET_NO = 999
REV_AT_EPOCH   = 598
BSTAR          = -.32494117E-2
MEAN_MOTION_DOT = -.133893E-2
MEAN_MOTION_DDOT = 0

CCSDS_OMM_VERS = 2.0
CREATION_DATE  = 
ORIGINATOR     = 

OBJECT_NAME    = STARLINK-35474
OBJECT_ID      = 2025-259R
CENTER_NAME    = EARTH
REF_FRAME      = TEME
TIME_SYSTEM    = UTC
MEAN_ELEMENT_THEORY = SGP/SGP4

EPOCH          = 2025-12-10T22:00:03.000096
MEAN_MOTION    = 15.40751943
ECCENTRICITY   = .00017136
INCLINATION    = 43.0003
RA_OF_ASC_NODE = 58.1289
ARG_OF_PERICENTER = 262.8524
MEAN_ANOMALY   = 196.4162

EPHEMERIS_TYPE = 0
CLASSIFICATION_TYPE = U
NORAD_CAT_ID   = 66437
ELEMENT_SET_NO = 999
REV_AT_EPOCH   = 598
BSTAR          = -.32432967E-2
MEAN_MOTION_DOT = -.133672E-2
MEAN_MOTION_DDOT = 0

CCSDS_OMM_VERS = 2.0
CREATION_DATE  = 
ORIGINATOR     = 

OBJECT_NAME    = STARLINK-34681
OBJECT_ID      = 2025-259S
CENTER_NAME    = EARTH
REF_FRAME      = TEME
TIME_SYSTEM    = UTC
MEAN_ELEMENT_THEORY = SGP/SGP4

EPOCH          = 2025-12-10T22:00:03.000096
MEAN_MOTION    = 15.40668732
ECCENTRICITY   = .0001214
INCLINATION    = 43.0004
RA_OF_ASC_NODE = 58.0990
ARG_OF_PERICENTER = 267.3115
MEAN_ANOMALY   = 204.4069

EPHEMERIS_TYPE = 0
CLASSIFICATION_TYPE = U
NORAD_CAT_ID   = 66438
ELEMENT_SET_NO = 999
REV_AT_EPOCH   = 587
BSTAR          = .35850341E-3
MEAN_MOTION_DOT = .14685E-3
MEAN_MOTION_DDOT = 0

CCSDS_OMM_VERS = 2.0
CREATION_DATE  = 
ORIGINATOR     = 

OBJECT_NAME    = STARLINK-35327
OBJECT_ID      = 2025-259T
CENTER_NAME    = EARTH
REF_FRAME      = TEME
TIME_SYSTEM    = UTC
MEAN_ELEMENT_THEORY = SGP/SGP4

EPOCH          = 2025-12-10T22:00:03.000096
MEAN_MOTION    = 15.40658145
ECCENTRICITY   = .00012941
INCLINATION    = 43.0000
RA_OF_ASC_NODE = 58.1912
ARG_OF_PERICENTER = 244.9700
MEAN_ANOMALY   = 189.4485

EPHEMERIS_TYPE = 0
CLASSIFICATION_TYPE = U
NORAD_CAT_ID   = 66439
ELEMENT_SET_NO = 999
REV_AT_EPOCH   = 598
BSTAR          = .50403157E-3
MEAN_MOTION_DOT = .20779E-3
MEAN_MOTION_DDOT = 0

CCSDS_OMM_VERS = 2.0
CREATION_DATE  = 
ORIGINATOR     = 

OBJECT_NAME    = STARLINK-35405
OBJECT_ID      = 2025-259U
CENTER_NAME    = EARTH
REF_FRAME      = TEME
TIME_SYSTEM    = UTC
MEAN_ELEMENT_THEORY = SGP/SGP4

EPOCH          = 2025-12-10T22:00:03.000096
MEAN_MOTION    = 15.40762212
ECCENTRICITY   = .00015547
INCLINATION    = 43.0004
RA_OF_ASC_NODE = 58.0696
ARG_OF_PERICENTER = 260.6529
MEAN_ANOMALY   = 223.4871

EPHEMERIS_TYPE = 0
CLASSIFICATION_TYPE = U
NORAD_CAT_ID   = 66440
ELEMENT_SET_NO = 999
REV_AT_EPOCH   = 598
BSTAR          = -.36096864E-2
MEAN_MOTION_DOT = -.148501E-2
MEAN_MOTION_DDOT = 0

CCSDS_OMM_VERS = 2.0
CREATION_DATE  = 
ORIGINATOR     = 

OBJECT_NAME    = STARLINK-35426
OBJECT_ID      = 2025-259V
CENTER_NAME    = EARTH
REF_FRAME      = TEME
TIME_SYSTEM    = UTC
MEAN_ELEMENT_THEORY = SGP/SGP4

EPOCH          = 2025-12-10T22:00:03.000096
MEAN_MOTION    = 15.40657031
ECCENTRICITY   = .00015044
INCLINATION    = 43.0006
RA_OF_ASC_NODE = 58.0389
ARG_OF_PERICENTER = 268.0229
MEAN_ANOMALY   = 228.5862

EPHEMERIS_TYPE = 0
CLASSIFICATION_TYPE = U
NORAD_CAT_ID   = 66441
ELEMENT_SET_NO = 999
REV_AT_EPOCH   = 598
BSTAR          = .62748415E-3
MEAN_MOTION_DOT = .2596E-3
MEAN_MOTION_DDOT = 0

CCSDS_OMM_VERS = 2.0
CREATION_DATE  = 
ORIGINATOR     = 

OBJECT_NAME    = STARLINK-34724
OBJECT_ID      = 2025-259W
CENTER_NAME    = EARTH
REF_FRAME      = TEME
TIME_SYSTEM    = UTC
MEAN_ELEMENT_THEORY = SGP/SGP4

EPOCH          = 2025-12-10T22:00:03.000096
MEAN_MOTION    = 15.40658402
ECCENTRICITY   = .0001446
INCLINATION    = 43.0005
RA_OF_ASC_NODE = 58.0083
ARG_OF_PERICENTER = 277.4320
MEAN_ANOMALY   = 231.6213

EPHEMERIS_TYPE = 0
CLASSIFICATION_TYPE = U
NORAD_CAT_ID   = 66442
ELEMENT_SET_NO = 999
REV_AT_EPOCH   = 598
BSTAR          = .48358446E-3
MEAN_MOTION_DOT = .19922E-3
MEAN_MOTION_DDOT = 0

CCSDS_OMM_VERS = 2.0
CREATION_DATE  = 
ORIGINATOR     = 

OBJECT_NAME    = STARLINK-35219
OBJECT_ID      = 2025-259X
CENTER_NAME    = EARTH
REF_FRAME      = TEME
TIME_SYSTEM    = UTC
MEAN_ELEMENT_THEORY = SGP/SGP4

EPOCH          = 2025-12-10T22:00:03.000096
MEAN_MOTION    = 15.42153125
ECCENTRICITY   = .00011319
INCLINATION    = 43.0010
RA_OF_ASC_NODE = 57.9803
ARG_OF_PERICENTER = 289.3877
MEAN_ANOMALY   = 231.3221

EPHEMERIS_TYPE = 0
CLASSIFICATION_TYPE = U
NORAD_CAT_ID   = 66443
ELEMENT_SET_NO = 999
REV_AT_EPOCH   = 588
BSTAR          = -.53283806E-1
MEAN_MOTION_DOT = -.2072208E-1
MEAN_MOTION_DDOT = 0

CCSDS_OMM_VERS = 2.0
CREATION_DATE  = 
ORIGINATOR     = 

OBJECT_NAME    = STARLINK-35360
OBJECT_ID      = 2025-259Y
CENTER_NAME    = EARTH
REF_FRAME      = TEME
TIME_SYSTEM    = UTC
MEAN_ELEMENT_THEORY = SGP/SGP4

EPOCH          = 2025-12-10T22:00:03.000096
MEAN_MOTION    = 15.46135026
ECCENTRICITY   = .00012945
INCLINATION    = 43.0013
RA_OF_ASC_NODE = 57.9159
ARG_OF_PERICENTER = 274.8077
MEAN_ANOMALY   = 272.2707

EPHEMERIS_TYPE = 0
CLASSIFICATION_TYPE = U
NORAD_CAT_ID   = 66444
ELEMENT_SET_NO = 999
REV_AT_EPOCH   = 598
BSTAR          = -.46937639E-1
MEAN_MOTION_DOT = -.2090569E-1
MEAN_MOTION_DDOT = 0

CCSDS_OMM_VERS = 2.0
CREATION_DATE  = 
ORIGINATOR     = 

OBJECT_NAME    = STARLINK-34698
OBJECT_ID      = 2025-259Z
CENTER_NAME    = EARTH
REF_FRAME      = TEME
TIME_SYSTEM    = UTC
MEAN_ELEMENT_THEORY = SGP/SGP4

EPOCH          = 2025-12-10T22:00:03.000096
MEAN_MOTION    = 15.43369232
ECCENTRICITY   = .0001722
INCLINATION    = 43.0004
RA_OF_ASC_NODE = 57.9558
ARG_OF_PERICENTER = 281.3187
MEAN_ANOMALY   = 249.5728

EPHEMERIS_TYPE = 0
CLASSIFICATION_TYPE = U
NORAD_CAT_ID   = 66445
ELEMENT_SET_NO = 999
REV_AT_EPOCH   = 587
BSTAR          = -.43361241E-1
MEAN_MOTION_DOT = -.1788167E-1
MEAN_MOTION_DDOT = 0

