STARLINK-35389          
1 66434U 25259N   25344.91670139  .00019403  00000+0  47152-3 0  9998
2 66434  43.0002  58.2500 0001487 264.7831 144.8029 15.40639512  5981
STARLINK-35502          
1 66435U 25259P   25344.91670139 -.00140283  00000+0 -34068-2 0  9993
2 66435  43.0002  58.2211 0001128 266.3675 155.5747 15.40754975  5984
STARLINK-35501          
1 66436U 25259Q   25344.91670139 -.00133893  00000+0 -32494-2 0  9994
2 66436  43.0003  58.1593 0001387 254.2508 192.5828 15.40746917  5984
STARLINK-35474          
1 66437U 25259R   25344.91670139 -.00133672  00000+0 -32433-2 0  9993
2 66437  43.0003  58.1289 0001713 262.8524 196.4162 15.40751943  5982
STARLINK-34681          
1 66438U 25259S   25344.91670139  .00014685  00000+0  35850-3 0  9991
2 66438  43.0004  58.0990 0001214 267.3115 204.4069 15.40668732  5871
STARLINK-35327          
1 66439U 25259T   25344.91670139  .00020779  00000+0  50403-3 0  9994
2 66439  43.0000  58.1912 0001294 244.9700 189.4485 15.40658145  5985
STARLINK-35405          
1 66440U 25259U   25344.91670139 -.00148501  00000+0 -36097-2 0  9994
2 66440  43.0004  58.0696 0001554 260.6529 223.4871 15.40762212  5981
STARLINK-35426          
1 66441U 25259V   25344.91670139  .00025960  00000+0  62748-3 0  9999
2 66441  43.0006  58.0389 0001504 268.0229 228.5862 15.40657031  5985
STARLINK-34724          
1 66442U 25259W   25344.91670139  .00019922  00000+0  48358-3 0  9992
2 66442  43.0005  58.0083 0001446 277.4320 231.6213 15.40658402  5985
STARLINK-35219          
1 66443U 25259X   25344.91670139 -.02072208  00000+0 -53284-1 0  9995
2 66443  43.0010  57.9803 0001131 289.3877 231.3221 15.42153125  5889
STARLINK-35360          
1 66444U 25259Y   25344.91670139 -.02090569  00000+0 -46938-1 0  9994
2 66444  43.0013  57.9159 0001294 274.8077 272.2707 15.46135026  5986
STARLINK-34698          
1 66445U 25259Z   25344.91670139 -.01788167  00000+0 -43361-1 0  9999
2 66445  43.0004  57.9558 0001722 281.3187 249.5728 15.43369232  5874
